{"type": "FeatureCollection", "features": [ {"type": "Feature", "properties": {"norad_id": 40697, "name": "SENTINEL-2A", "group": "resource", "lat": 31.40179614491687, "lon": 46.17890342319295, "alt_km": 786.8191867846062, "timestamp": "2025-12-04T19:33:59.288567+00:00", "meta": {"OBJECT_NAME": "SENTINEL-2A", "OBJECT_ID": "2015-028A", "EPOCH": "2025-12-04T07:40:12.467136", "MEAN_MOTION": 14.30822376, "ECCENTRICITY": 0.00010331, "INCLINATION": 98.5702, "RA_OF_ASC_NODE": 50.9722, "ARG_OF_PERICENTER": 93.7384, "MEAN_ANOMALY": 266.3917, "EPHEMERIS_TYPE": 0, "CLASSIFICATION_TYPE": "U", "NORAD_CAT_ID": 40697, "ELEMENT_SET_NO": 999, "REV_AT_EPOCH": 54586, "BSTAR": 0.00015026999, "MEAN_MOTION_DOT": 3.5e-06, "MEAN_MOTION_DDOT": 0}, "tle": {"line1": "1 40697U 15028A   25338.31958874  .00000350  00000+0  15027-3 0  9993", "line2": "2 40697  98.5702  50.9722 0001033  93.7384 266.3917 14.30822376545863"}}, "geometry": {"type": "Point", "coordinates": [46.17890342319295, 31.40179614491687]}}, {"type": "Feature", "properties": {"norad_id": 40701, "name": "GAOFEN-8", "group": "resource", "lat": -74.28178718529895, "lon": -52.12402816289039, "alt_km": 458.93945508525303, "timestamp": "2025-12-04T19:33:59.288576+00:00", "meta": {"OBJECT_NAME": "GAOFEN-8", "OBJECT_ID": "2015-030A", "EPOCH": "2025-12-04T07:31:37.380576", "MEAN_MOTION": 15.38112155, "ECCENTRICITY": 0.00112319, "INCLINATION": 97.6904, "RA_OF_ASC_NODE": 156.046, "ARG_OF_PERICENTER": 167.689, "MEAN_ANOMALY": 192.463, "EPHEMERIS_TYPE": 0, "CLASSIFICATION_TYPE": "U", "NORAD_CAT_ID": 40701, "ELEMENT_SET_NO": 999, "REV_AT_EPOCH": 58141, "BSTAR": 0.0009840281, "MEAN_MOTION_DOT": 0.0003704, "MEAN_MOTION_DDOT": 0}, "tle": {"line1": "1 40701U 15030A   25338.31362709  .00037040  00000+0  98403-3 0  9993", "line2": "2 40701  97.6904 156.0460 0011231 167.6890 192.4630 15.38112155581412"}}, "geometry": {"type": "Point", "coordinates": [-52.12402816289039, -74.28178718529895]}}, {"type": "Feature", "properties": {"norad_id": 40718, "name": "CARBONITE 1 (CBNT-1)", "group": "resource", "lat": -27.420400883588066, "lon": 164.20138948319627, "alt_km": 632.1230419478752, "timestamp": "2025-12-04T19:33:59.288585+00:00", "meta": {"OBJECT_NAME": "CARBONITE 1 (CBNT-1)", "OBJECT_ID": "2015-032D", "EPOCH": "2025-12-04T06:44:01.904640", "MEAN_MOTION": 14.82681462, "ECCENTRICITY": 0.0013875, "INCLINATION": 97.6398, "RA_OF_ASC_NODE": 159.6974, "ARG_OF_PERICENTER": 209.9431, "MEAN_ANOMALY": 150.0991, "EPHEMERIS_TYPE": 0, "CLASSIFICATION_TYPE": "U", "NORAD_CAT_ID": 40718, "ELEMENT_SET_NO": 999, "REV_AT_EPOCH": 56045, "BSTAR": 0.00064264886, "MEAN_MOTION_DOT": 5.143e-05, "MEAN_MOTION_DDOT": 0}, "tle": {"line1": "1 40718U 15032D   25338.28057760  .00005143  00000+0  64265-3 0  9995", "line2": "2 40718  97.6398 159.6974 0013875 209.9431 150.0991 14.82681462560454"}}, "geometry": {"type": "Point", "coordinates": [164.20138948319627, -27.420400883588066]}}, {"type": "Feature", "properties": {"norad_id": 40878, "name": "YAOGAN-27", "group": "resource", "lat": 77.58550095407388, "lon": -157.1395708524517, "alt_km": 1197.5751092313458, "timestamp": "2025-12-04T19:33:59.288594+00:00", "meta": {"OBJECT_NAME": "YAOGAN-27", "OBJECT_ID": "2015-040A", "EPOCH": "2025-12-04T08:07:37.261344", "MEAN_MOTION": 13.16059679, "ECCENTRICITY": 0.00077244, "INCLINATION": 100.1005, "RA_OF_ASC_NODE": 328.3389, "ARG_OF_PERICENTER": 307.406, "MEAN_ANOMALY": 52.635, "EPHEMERIS_TYPE": 0, "CLASSIFICATION_TYPE": "U", "NORAD_CAT_ID": 40878, "ELEMENT_SET_NO": 999, "REV_AT_EPOCH": 49203, "BSTAR": 6.5074744e-05, "MEAN_MOTION_DOT": -1.8e-07, "MEAN_MOTION_DDOT": 0}, "tle": {"line1": "1 40878U 15040A   25338.33862571 -.00000018  00000+0  65075-4 0  9999", "line2": "2 40878 100.1005 328.3389 0007724 307.4060  52.6350 13.16059679492038"}}, "geometry": {"type": "Point", "coordinates": [-157.1395708524517, 77.58550095407388]}}, {"type": "Feature", "properties": {"norad_id": 40894, "name": "GAOFEN-9 01", "group": "resource", "lat": -78.77043481453644, "lon": 155.46801995276246, "alt_km": 647.8264375132258, "timestamp": "2025-12-04T19:33:59.288603+00:00", "meta": {"OBJECT_NAME": "GAOFEN-9 01", "OBJECT_ID": "2015-047A", "EPOCH": "2025-12-04T07:02:59.576640", "MEAN_MOTION": 14.82389308, "ECCENTRICITY": 0.00289035, "INCLINATION": 97.6554, "RA_OF_ASC_NODE": 17.6142, "ARG_OF_PERICENTER": 60.9857, "MEAN_ANOMALY": 299.4248, "EPHEMERIS_TYPE": 0, "CLASSIFICATION_TYPE": "U", "NORAD_CAT_ID": 40894, "ELEMENT_SET_NO": 999, "REV_AT_EPOCH": 55131, "BSTAR": 0.00033850757, "MEAN_MOTION_DOT": 2.679e-05, "MEAN_MOTION_DDOT": 0}, "tle": {"line1": "1 40894U 15047A   25338.29374510  .00002679  00000+0  33851-3 0  9990", "line2": "2 40894  97.6554  17.6142 0028903  60.9857 299.4248 14.82389308551310"}}, "geometry": {"type": "Point", "coordinates": [155.46801995276246, -78.77043481453644]}}, {"type": "Feature", "properties": {"norad_id": 41026, "name": "YAOGAN-28", "group": "resource", "lat": -57.71604397108198, "lon": 128.50664420833766, "alt_km": 507.5890345662301, "timestamp": "2025-12-04T19:33:59.288612+00:00", "meta": {"OBJECT_NAME": "YAOGAN-28", "OBJECT_ID": "2015-064A", "EPOCH": "2025-12-04T08:47:36.392352", "MEAN_MOTION": 15.24130116, "ECCENTRICITY": 0.00120059, "INCLINATION": 97.2799, "RA_OF_ASC_NODE": 116.3968, "ARG_OF_PERICENTER": 153.7455, "MEAN_ANOMALY": 206.4394, "EPHEMERIS_TYPE": 0, "CLASSIFICATION_TYPE": "U", "NORAD_CAT_ID": 41026, "ELEMENT_SET_NO": 999, "REV_AT_EPOCH": 56097, "BSTAR": 0.0007845267, "MEAN_MOTION_DOT": 0.00019075, "MEAN_MOTION_DDOT": 0}, "tle": {"line1": "1 41026U 15064A   25338.36639343  .00019075  00000+0  78453-3 0  9998", "line2": "2 41026  97.2799 116.3968 0012005 153.7455 206.4394 15.24130116560979"}}, "geometry": {"type": "Point", "coordinates": [128.50664420833766, -57.71604397108198]}}, {"type": "Feature", "properties": {"norad_id": 41038, "name": "YAOGAN-29", "group": "resource", "lat": 43.2776138737711, "lon": -170.40698698114133, "alt_km": 617.032740768871, "timestamp": "2025-12-04T19:33:59.288621+00:00", "meta": {"OBJECT_NAME": "YAOGAN-29", "OBJECT_ID": "2015-069A", "EPOCH": "2025-12-04T07:37:06.541248", "MEAN_MOTION": 14.82868492, "ECCENTRICITY": 6.906e-05, "INCLINATION": 98.0227, "RA_OF_ASC_NODE": 1.4618, "ARG_OF_PERICENTER": 3.8225, "MEAN_ANOMALY": 356.2994, "EPHEMERIS_TYPE": 0, "CLASSIFICATION_TYPE": "U", "NORAD_CAT_ID": 41038, "ELEMENT_SET_NO": 999, "REV_AT_EPOCH": 54174, "BSTAR": 0.00013037138, "MEAN_MOTION_DOT": 1.002e-05, "MEAN_MOTION_DDOT": 0}, "tle": {"line1": "1 41038U 15069A   25338.31743682  .00001002  00000+0  13037-3 0  9991", "line2": "2 41038  98.0227   1.4618 0000690   3.8225 356.2994 14.82868492541742"}}, "geometry": {"type": "Point", "coordinates": [-170.40698698114133, 43.2776138737711]}}, {"type": "Feature", "properties": {"norad_id": 41167, "name": "KENT RIDGE 1", "group": "resource", "lat": -8.957464261096552, "lon": 126.0659755271979, "alt_km": 505.15115812971, "timestamp": "2025-12-04T19:33:59.288629+00:00", "meta": {"OBJECT_NAME": "KENT RIDGE 1", "OBJECT_ID": "2015-077B", "EPOCH": "2025-12-04T01:18:41.430816", "MEAN_MOTION": 15.21528347, "ECCENTRICITY": 0.00086425, "INCLINATION": 14.9803, "RA_OF_ASC_NODE": 275.5817, "ARG_OF_PERICENTER": 7.7804, "MEAN_ANOMALY": 352.2651, "EPHEMERIS_TYPE": 0, "CLASSIFICATION_TYPE": "U", "NORAD_CAT_ID": 41167, "ELEMENT_SET_NO": 999, "REV_AT_EPOCH": 55131, "BSTAR": 0.00031346476, "MEAN_MOTION_DOT": 8.044e-05, "MEAN_MOTION_DDOT": 0}, "tle": {"line1": "1 41167U 15077B   25338.05464619  .00008044  00000+0  31346-3 0  9990", "line2": "2 41167  14.9803 275.5817 0008642   7.7804 352.2651 15.21528347551314"}}, "geometry": {"type": "Point", "coordinates": [126.0659755271979, -8.957464261096552]}}, {"type": "Feature", "properties": {"norad_id": 41194, "name": "GAOFEN-4", "group": "resource", "lat": 0.09377663006300052, "lon": 113.01273352611008, "alt_km": 35781.23195722723, "timestamp": "2025-12-04T19:33:59.288641+00:00", "meta": {"OBJECT_NAME": "GAOFEN-4", "OBJECT_ID": "2015-083A", "EPOCH": "2025-12-04T14:13:46.718112", "MEAN_MOTION": 1.00273013, "ECCENTRICITY": 0.0003723, "INCLINATION": 0.1483, "RA_OF_ASC_NODE": 80.8016, "ARG_OF_PERICENTER": 105.1492, "MEAN_ANOMALY": 206.8499, "EPHEMERIS_TYPE": 0, "CLASSIFICATION_TYPE": "U", "NORAD_CAT_ID": 41194, "ELEMENT_SET_NO": 999, "REV_AT_EPOCH": 3657, "BSTAR": 0, "MEAN_MOTION_DOT": -3.2e-06, "MEAN_MOTION_DDOT": 0}, "tle": {"line1": "1 41194U 15083A   25338.59290183 -.00000320  00000+0  00000+0 0  9998", "line2": "2 41194   0.1483  80.8016 0003723 105.1492 206.8499  1.00273013 36573"}}, "geometry": {"type": "Point", "coordinates": [113.01273352611008, 0.09377663006300052]}}, {"type": "Feature", "properties": {"norad_id": 41240, "name": "JASON-3", "group": "resource", "lat": -51.13178970042772, "lon": 141.00172460463733, "alt_km": 1312.288380465232, "timestamp": "2025-12-04T19:33:59.288651+00:00", "meta": {"OBJECT_NAME": "JASON-3", "OBJECT_ID": "2016-002A", "EPOCH": "2025-12-04T06:49:13.966752", "MEAN_MOTION": 12.87626087, "ECCENTRICITY": 0.00071368, "INCLINATION": 66.0392, "RA_OF_ASC_NODE": 175.6015, "ARG_OF_PERICENTER": 270.3631, "MEAN_ANOMALY": 89.657, "EPHEMERIS_TYPE": 0, "CLASSIFICATION_TYPE": "U", "NORAD_CAT_ID": 41240, "ELEMENT_SET_NO": 999, "REV_AT_EPOCH": 46215, "BSTAR": 0.00018505045, "MEAN_MOTION_DOT": -1.5e-07, "MEAN_MOTION_DDOT": 0}, "tle": {"line1": "1 41240U 16002A   25338.28418943 -.00000015  00000+0  18505-3 0  9998", "line2": "2 41240  66.0392 175.6015 0007136 270.3631  89.6570 12.87626087462153"}}, "geometry": {"type": "Point", "coordinates": [141.00172460463733, -51.13178970042772]}}]}